[
    {
        "Altitude(m)": 553508.5498529944,
        "Argument of Periapsis(deg)": 0.026491964442854003,
        "Eccentricity": 0.0,
        "Inclination(deg)": 53.0,
        "Latitude(deg)": 14.130364432049289,
        "Longitude(deg)": 175.94109158911448,
        "Mean Anomaly(deg)": 162.18467147031038,
        "RAAN(deg)": 109.96057347411207,
        "Satellite Name": "Starlink Shell 1 491",
        "Satellite Number": 491,
        "Semi-Major Axis(m)": 6931778.249405717,
        "Time(s)": 760
    },
    {
        "Altitude(m)": 553498.1267621501,
        "Argument of Periapsis(deg)": 0.02684054292236524,
        "Eccentricity": 0.0,
        "Inclination(deg)": 53.0,
        "Latitude(deg)": 13.635253215412854,
        "Longitude(deg)": 176.299443526797,
        "Mean Anomaly(deg)": 162.811502673867,
        "RAAN(deg)": 109.96005470403459,
        "Satellite Name": "Starlink Shell 1 491",
        "Satellite Number": 491,
        "Semi-Major Axis(m)": 6931778.249405717,
        "Time(s)": 770
    },
    {
        "Altitude(m)": 553490.227032294,
        "Argument of Periapsis(deg)": 0.027189121401876473,
        "Eccentricity": 0.0,
        "Inclination(deg)": 53.0,
        "Latitude(deg)": 13.139486725185158,
        "Longitude(deg)": 176.65613094250818,
        "Mean Anomaly(deg)": 163.4383338774238,
        "RAAN(deg)": 109.95953593395711,
        "Satellite Name": "Starlink Shell 1 491",
        "Satellite Number": 491,
        "Semi-Major Axis(m)": 6931778.249405717,
        "Time(s)": 780
    },
    {
        "Altitude(m)": 553484.8771740684,
        "Argument of Periapsis(deg)": 0.02753769988138771,
        "Eccentricity": 0.0,
        "Inclination(deg)": 53.0,
        "Latitude(deg)": 12.643092367330246,
        "Longitude(deg)": 177.0112211644237,
        "Mean Anomaly(deg)": 164.0651650809805,
        "RAAN(deg)": 109.95901716387965,
        "Satellite Name": "Starlink Shell 1 491",
        "Satellite Number": 491,
        "Semi-Major Axis(m)": 6931778.249405717,
        "Time(s)": 790
    },
    {
        "Altitude(m)": 553482.1025380001,
        "Argument of Periapsis(deg)": 0.02788627836089895,
        "Eccentricity": 0.0,
        "Inclination(deg)": 53.0,
        "Latitude(deg)": 12.146097202864725,
        "Longitude(deg)": 177.36478033016095,
        "Mean Anomaly(deg)": 164.6919962845372,
        "RAAN(deg)": 109.95849839380219,
        "Satellite Name": "Starlink Shell 1 491",
        "Satellite Number": 491,
        "Semi-Major Axis(m)": 6931778.249405717,
        "Time(s)": 800
    },
    {
        "Altitude(m)": 553481.9272991824,
        "Argument of Periapsis(deg)": 0.02823485684041019,
        "Eccentricity": 0.0,
        "Inclination(deg)": 53.0,
        "Latitude(deg)": 11.648527963417497,
        "Longitude(deg)": 177.71687391800418,
        "Mean Anomaly(deg)": 165.31882748809394,
        "RAAN(deg)": 109.95797962372471,
        "Satellite Name": "Starlink Shell 1 491",
        "Satellite Number": 491,
        "Semi-Major Axis(m)": 6931778.249405717,
        "Time(s)": 810
    },
    {
        "Altitude(m)": 553484.3744425371,
        "Argument of Periapsis(deg)": 0.028583435319921423,
        "Eccentricity": 0.0,
        "Inclination(deg)": 53.0,
        "Latitude(deg)": 11.150411066489292,
        "Longitude(deg)": 178.06756727807948,
        "Mean Anomaly(deg)": 165.94565869165058,
        "RAAN(deg)": 109.95746085364723,
        "Satellite Name": "Starlink Shell 1 491",
        "Satellite Number": 491,
        "Semi-Major Axis(m)": 6931778.249405717,
        "Time(s)": 820
    },
    {
        "Altitude(m)": 553489.4657486469,
        "Argument of Periapsis(deg)": 0.028932013799432665,
        "Eccentricity": 0.0,
        "Inclination(deg)": 53.0,
        "Latitude(deg)": 10.651772630426688,
        "Longitude(deg)": 178.41692465059754,
        "Mean Anomaly(deg)": 166.57248989520738,
        "RAAN(deg)": 109.95694208356976,
        "Satellite Name": "Starlink Shell 1 491",
        "Satellite Number": 491,
        "Semi-Major Axis(m)": 6931778.249405717,
        "Time(s)": 830
    },
    {
        "Altitude(m)": 553497.2217802039,
        "Argument of Periapsis(deg)": 0.029280592278943897,
        "Eccentricity": 0.0,
        "Inclination(deg)": 53.0,
        "Latitude(deg)": 10.15263848911929,
        "Longitude(deg)": 178.76500969689846,
        "Mean Anomaly(deg)": 167.19932109876413,
        "RAAN(deg)": 109.95642331349228,
        "Satellite Name": "Starlink Shell 1 491",
        "Satellite Number": 491,
        "Semi-Major Axis(m)": 6931778.249405717,
        "Time(s)": 840
    },
    {
        "Altitude(m)": 553507.6618690235,
        "Argument of Periapsis(deg)": 0.029629170758455132,
        "Eccentricity": 0.0,
        "Inclination(deg)": 53.0,
        "Latitude(deg)": 9.65303420643347,
        "Longitude(deg)": 179.11188603041978,
        "Mean Anomaly(deg)": 167.82615230232076,
        "RAAN(deg)": 109.95590454341482,
        "Satellite Name": "Starlink Shell 1 491",
        "Satellite Number": 491,
        "Semi-Major Axis(m)": 6931778.249405717,
        "Time(s)": 850
    },
    {
        "Altitude(m)": 553520.804103692,
        "Argument of Periapsis(deg)": 0.02997774923796637,
        "Eccentricity": 0.0,
        "Inclination(deg)": 53.0,
        "Latitude(deg)": 9.152985090398808,
        "Longitude(deg)": 179.45761606661046,
        "Mean Anomaly(deg)": 168.4529835058775,
        "RAAN(deg)": 109.95538577333735,
        "Satellite Name": "Starlink Shell 1 491",
        "Satellite Number": 491,
        "Semi-Major Axis(m)": 6931778.249405717,
        "Time(s)": 860
    },
    {
        "Altitude(m)": 553536.6653177864,
        "Argument of Periapsis(deg)": 0.030326327717477602,
        "Eccentricity": 0.0,
        "Inclination(deg)": 53.0,
        "Latitude(deg)": 8.65251620715298,
        "Longitude(deg)": 179.80226239421157,
        "Mean Anomaly(deg)": 169.0798147094342,
        "RAAN(deg)": 109.95486700325988,
        "Satellite Name": "Starlink Shell 1 491",
        "Satellite Number": 491,
        "Semi-Major Axis(m)": 6931778.249405717,
        "Time(s)": 870
    },
    {
        "Altitude(m)": 553555.2610787854,
        "Argument of Periapsis(deg)": 0.030674906196988847,
        "Eccentricity": 0.0,
        "Inclination(deg)": 53.0,
        "Latitude(deg)": 8.151652394664998,
        "Longitude(deg)": -179.8541133750103,
        "Mean Anomaly(deg)": 169.70664591299092,
        "RAAN(deg)": 109.9543482331824,
        "Satellite Name": "Starlink Shell 1 491",
        "Satellite Number": 491,
        "Semi-Major Axis(m)": 6931778.249405717,
        "Time(s)": 880
    },
    {
        "Altitude(m)": 553576.6056775077,
        "Argument of Periapsis(deg)": 0.031023484676500086,
        "Eccentricity": 0.0,
        "Inclination(deg)": 53.0,
        "Latitude(deg)": 7.650418276241815,
        "Longitude(deg)": -179.51145007565162,
        "Mean Anomaly(deg)": 170.33347711654767,
        "RAAN(deg)": 109.95382946310492,
        "Satellite Name": "Starlink Shell 1 491",
        "Satellite Number": 491,
        "Semi-Major Axis(m)": 6931778.249405717,
        "Time(s)": 890
    },
    {
        "Altitude(m)": 553600.7121182597,
        "Argument of Periapsis(deg)": 0.03137206315601132,
        "Eccentricity": 0.0,
        "Inclination(deg)": 53.0,
        "Latitude(deg)": 7.148838273834496,
        "Longitude(deg)": -179.16968645815663,
        "Mean Anomaly(deg)": 170.96030832010436,
        "RAAN(deg)": 109.95331069302745,
        "Satellite Name": "Starlink Shell 1 491",
        "Satellite Number": 491,
        "Semi-Major Axis(m)": 6931778.249405717,
        "Time(s)": 900
    },
    {
        "Altitude(m)": 553627.5921095944,
        "Argument of Periapsis(deg)": 0.03172064163552255,
        "Eccentricity": 0.0,
        "Inclination(deg)": 53.0,
        "Latitude(deg)": 6.646936621157059,
        "Longitude(deg)": -178.82876217126815,
        "Mean Anomaly(deg)": 171.58713952366105,
        "RAAN(deg)": 109.95279192294998,
        "Satellite Name": "Starlink Shell 1 491",
        "Satellite Number": 491,
        "Semi-Major Axis(m)": 6931778.249405717,
        "Time(s)": 910
    },
    {
        "Altitude(m)": 553657.256055685,
        "Argument of Periapsis(deg)": 0.0320692201150338,
        "Eccentricity": 0.0,
        "Inclination(deg)": 53.0,
        "Latitude(deg)": 6.144737376626015,
        "Longitude(deg)": -178.48861723169878,
        "Mean Anomaly(deg)": 172.2139707272178,
        "RAAN(deg)": 109.95227315287252,
        "Satellite Name": "Starlink Shell 1 491",
        "Satellite Number": 491,
        "Semi-Major Axis(m)": 6931778.249405717,
        "Time(s)": 920
    },
    {
        "Altitude(m)": 553689.7130484165,
        "Argument of Periapsis(deg)": 0.032417798594545036,
        "Eccentricity": 0.0,
        "Inclination(deg)": 53.0,
        "Latitude(deg)": 5.642264436134598,
        "Longitude(deg)": -178.1491914938928,
        "Mean Anomaly(deg)": 172.8408019307745,
        "RAAN(deg)": 109.95175438279504,
        "Satellite Name": "Starlink Shell 1 491",
        "Satellite Number": 491,
        "Semi-Major Axis(m)": 6931778.249405717,
        "Time(s)": 930
    },
    {
        "Altitude(m)": 553724.970860032,
        "Argument of Periapsis(deg)": 0.03276637707405627,
        "Eccentricity": 0.0,
        "Inclination(deg)": 53.0,
        "Latitude(deg)": 5.13954154567569,
        "Longitude(deg)": -177.81042563274926,
        "Mean Anomaly(deg)": 173.46763313433124,
        "RAAN(deg)": 109.95123561271757,
        "Satellite Name": "Starlink Shell 1 491",
        "Satellite Number": 491,
        "Semi-Major Axis(m)": 6931778.249405717,
        "Time(s)": 940
    }
]